NORAD_CAT_ID,OBJECT_NAME,OBJECT_TYPE,EPOCH,MEAN_MOTION,ECCENTRICITY,INCLINATION,RA_OF_ASC_NODE,ARG_OF_PERICENTER,MEAN_ANOMALY,BSTAR,MEAN_MOTION_DOT,MEAN_MOTION_DDOT,TLE_LINE0,TLE_LINE1,TLE_LINE2,SEMIMAJOR_AXIS,PERIOD,APOGEE,PERIGEE,DECAYED
52294.0,STARLINK-3777,PAYLOAD,2023-05-11 01:40:16,15.08855577,0.0001166,53.2195,59.2192,89.7898,270.3228,0.00015749,2.221e-05,0.0,0 STARLINK-3777,1 52294U 22041AK  23131.06963898  .00002221  00000-0  15749-3 0  9996,2 52294  53.2195  59.2192 0001166  89.7898 270.3228 15.08855577 59683,6917.833,95.437,540.504,538.891,0.0
52294.0,STARLINK-3777,PAYLOAD,2023-05-12 01:31:05,15.08834738,0.0001061,53.2164,54.7593,65.1553,294.955,1.6204e-05,-3e-07,0.0,0 STARLINK-3777,1 52294U 22041AK  23132.06325705 -.00000030  00000-0  16204-4 0  9991,2 52294  53.2164  54.7593 0001061  65.1553 294.9550 15.08834738 59837,6917.896,95.438,540.495,539.027,0.0
52294.0,STARLINK-3777,PAYLOAD,2023-05-12 22:11:05,15.08848519,0.0001108,53.2172,50.8943,67.0734,293.0375,0.00012595,1.718e-05,0.0,0 STARLINK-3777,1 52294U 22041AK  23132.92437074  .00001718  00000-0  12595-3 0  9990,2 52294  53.2172  50.8943 0001108  67.0734 293.0375 15.08848519 59967,6917.854,95.437,540.486,538.953,0.0
52294.0,STARLINK-3777,PAYLOAD,2023-05-13 04:32:37,15.0886252,0.0001235,53.2171,49.7024,81.4173,278.6959,0.0006085,9.416e-05,0.0,0 STARLINK-3777,1 52294U 22041AK  23133.18932571  .00009416  00000-0  60850-3 0  9991,2 52294  53.2171  49.7024 0001235  81.4173 278.6959 15.08862520 60003,6917.812,95.436,540.531,538.822,0.0
52294.0,STARLINK-3777,PAYLOAD,2023-05-14 02:48:02,15.08845443,0.0001202,53.2175,45.5396,83.6171,276.4958,0.00022679,3.324e-05,0.0,0 STARLINK-3777,1 52294U 22041AK  23134.11669385  .00003324  00000-0  22679-3 0  9994,2 52294  53.2175  45.5396 0001202  83.6171 276.4958 15.08845443 60144,6917.864,95.437,540.56,538.897,0.0
52294.0,STARLINK-3777,PAYLOAD,2023-05-14 20:17:17,15.08839669,0.0001206,53.2169,42.2683,88.1597,271.9533,0.00036722,5.561e-05,0.0,0 STARLINK-3777,1 52294U 22041AK  23134.84533762  .00005561  00000-0  36722-3 0  9992,2 52294  53.2169  42.2683 0001206  88.1597 271.9533 15.08839669 59034,6917.881,95.438,540.581,538.912,0.0
52294.0,STARLINK-3777,PAYLOAD,2023-05-14 23:28:03,15.08844053,0.0001254,53.2173,41.6742,89.1477,270.9659,0.00042396,6.467e-05,0.0,0 STARLINK-3777,1 52294U 22041AK  23134.97781657  .00006467  00000-0  42396-3 0  9994,2 52294  53.2173  41.6742 0001254  89.1477 270.9659 15.08844053 60278,6917.868,95.437,540.601,538.865,0.0
52294.0,STARLINK-3777,PAYLOAD,2023-05-15 10:35:45,15.08849627,0.000114,53.2176,39.5944,99.0234,261.0888,0.00034021,5.132e-05,0.0,0 STARLINK-3777,1 52294U 22041AK  23135.44149384  .00005132  00000-0  34021-3 0  9996,2 52294  53.2176  39.5944 0001140  99.0234 261.0888 15.08849627 59125,6917.851,95.437,540.505,538.927,0.0
52294.0,STARLINK-3777,PAYLOAD,2023-05-16 00:54:13,15.08836156,0.000148,53.2175,36.9165,89.1417,270.9745,-3.0095e-05,-7.67e-06,0.0,0 STARLINK-3777,1 52294U 22041AK  23136.03765788 -.00000767  00000-0 -30095-4 0  9993,2 52294  53.2175  36.9165 0001480  89.1417 270.9745 15.08836156 60430,6917.892,95.438,540.781,538.733,0.0
52294.0,STARLINK-3777,PAYLOAD,2023-05-16 21:34:14,15.08841236,0.000148,53.2191,33.0509,96.6246,263.4914,6.0137e-05,6.69e-06,0.0,0 STARLINK-3777,1 52294U 22041AK  23136.89877837  .00000669  00000-0  60137-4 0  9995,2 52294  53.2191  33.0509 0001480  96.6246 263.4914 15.08841236 59349,6917.877,95.437,540.765,538.718,0.0
52294.0,STARLINK-3777,PAYLOAD,2023-05-17 02:20:23,15.08846662,0.0001457,53.2189,32.1578,98.3895,261.7263,7.5079e-05,9.07e-06,0.0,0 STARLINK-3777,1 52294U 22041AK  23137.09749589  .00000907  00000-0  75079-4 0  9996,2 52294  53.2189  32.1578 0001457  98.3895 261.7263 15.08846662 60590,6917.86,95.437,540.733,538.717,0.0
52294.0,STARLINK-3777,PAYLOAD,2023-05-17 21:25:01,15.08837023,0.0001538,53.2195,28.5843,77.4782,282.6382,0.00010286,1.349e-05,0.0,0 STARLINK-3777,1 52294U 22041AK  23137.89238277  .00001349  00000-0  10286-3 0  9990,2 52294  53.2195  28.5843 0001538  77.4782 282.6382 15.08837023 59496,6917.889,95.438,540.818,538.691,0.0
52294.0,STARLINK-3777,PAYLOAD,2023-05-18 02:11:11,15.08833265,0.0001358,53.2182,27.6944,98.3687,261.7459,0.00027041,4.017e-05,0.0,0 STARLINK-3777,1 52294U 22041AK  23138.09110386  .00004017  00000-0  27041-3 0  9995,2 52294  53.2182  27.6944 0001358  98.3687 261.7459 15.08833265 60747,6917.901,95.438,540.705,538.827,0.0
52294.0,STARLINK-3777,PAYLOAD,2023-05-18 22:51:11,15.08846327,0.0001361,53.2183,23.8293,96.6807,263.434,0.00013726,1.898e-05,0.0,0 STARLINK-3777,1 52294U 22041AK  23138.95221708  .00001898  00000-0  13726-3 0  9990,2 52294  53.2183  23.8293 0001361  96.6807 263.4340 15.08846327 59651,6917.861,95.437,540.668,538.785,0.0
52294.0,STARLINK-3777,PAYLOAD,2023-05-19 16:20:26,15.08840642,0.0001247,53.2189,20.5609,88.469,271.6445,5.2337e-05,5.45e-06,0.0,0 STARLINK-3777,1 52294U 22041AK  23139.68086145  .00000545  00000-0  52337-4 0  9995,2 52294  53.2189  20.5609 0001247  88.4690 271.6445 15.08840642 60983,6917.878,95.438,540.606,538.881,0.0
52294.0,STARLINK-3777,PAYLOAD,2023-05-19 21:06:35,15.08843462,0.0001209,53.2188,19.6693,85.7688,274.3442,6.2019e-05,6.99e-06,0.0,0 STARLINK-3777,1 52294U 22041AK  23139.87957903  .00000699  00000-0  62019-4 0  9993,2 52294  53.2188  19.6693 0001209  85.7688 274.3442 15.08843462 59796,6917.87,95.437,540.571,538.898,0.0
52294.0,STARLINK-3777,PAYLOAD,2023-05-20 19:21:59,15.08833385,0.0001058,53.2182,15.5058,85.0986,275.0127,0.00029428,4.398e-05,0.0,0 STARLINK-3777,1 52294U 22041AK  23140.80693558  .00004398  00000-0  29428-3 0  9997,2 52294  53.2182  15.5058 0001058  85.0986 275.0127 15.08833385 59933,6917.901,95.438,540.498,539.034,0.0
52294.0,STARLINK-3777,PAYLOAD,2023-05-21 16:02:00,15.08831016,7.93e-05,53.2179,11.6399,79.161,280.9471,-0.0001004,-1.885e-05,0.0,0 STARLINK-3777,1 52294U 22041AK  23141.66806358 -.00001885  00000-0 -10040-3 0  9996,2 52294  53.2179  11.6399 0000793  79.1610 280.9471 15.08831016 61284,6917.908,95.438,540.321,539.224,0.0
52294.0,STARLINK-3777,PAYLOAD,2023-05-21 22:23:33,15.08821851,0.0001162,53.2186,10.4499,87.2002,272.9123,-0.00022482,-3.862e-05,0.0,0 STARLINK-3777,1 52294U 22041AK  23141.93303010 -.00003862  00000-0 -22482-3 0  9993,2 52294  53.2186  10.4499 0001162  87.2002 272.9123 15.08821851 60107,6917.936,95.439,540.605,538.997,0.0
52294.0,STARLINK-3777,PAYLOAD,2023-05-22 03:09:43,15.08824741,9.81e-05,53.2192,9.5595,84.118,275.9924,-7.8768e-05,-1.541e-05,0.0,0 STARLINK-3777,1 52294U 22041AK  23142.13175784 -.00001541  00000-0 -78768-4 0  9992,2 52294  53.2192   9.5595 0000981  84.1180 275.9924 15.08824741 61352,6917.927,95.439,540.471,539.113,0.0
52294.0,STARLINK-3777,PAYLOAD,2023-05-22 07:55:52,15.08831935,9.42e-05,53.2188,8.6679,81.3489,278.761,-3.0884e-05,-7.79e-06,0.0,0 STARLINK-3777,1 52294U 22041AK  23142.33047362 -.00000779  00000-0 -30884-4 0  9993,2 52294  53.2188   8.6679 0000942  81.3489 278.7610 15.08831935 61387,6917.905,95.438,540.422,539.118,0.0
52294.0,STARLINK-3777,PAYLOAD,2023-05-23 03:00:29,15.08849493,9.13e-05,53.2174,5.0997,89.3235,270.7862,0.0001541,2.166e-05,0.0,0 STARLINK-3777,1 52294U 22041AK  23143.12534413  .00002166  00000-0  15410-3 0  9996,2 52294  53.2174   5.0997 0000913  89.3235 270.7862 15.08849493 61504,6917.851,95.437,540.348,539.085,0.0
52294.0,STARLINK-3777,PAYLOAD,2023-05-23 06:11:16,15.088388,0.0001014,53.2173,4.506,81.5178,278.5929,4.173e-05,3.76e-06,0.0,0 STARLINK-3777,1 52294U 22041AK  23143.25782814  .00000376  00000-0  41730-4 0  9996,2 52294  53.2173   4.5060 0001014  81.5178 278.5929 15.08838800 61523,6917.884,95.438,540.451,539.048,0.0
52294.0,STARLINK-3777,PAYLOAD,2023-05-23 20:29:44,15.08855526,9.06e-05,53.2173,1.8288,71.7919,288.3172,0.00061471,9.513e-05,0.0,0 STARLINK-3777,1 52294U 22041AK  23143.85398874  .00009513  00000-0  61471-3 0  9996,2 52294  53.2173   1.8288 0000906  71.7919 288.3172 15.08855526 60395,6917.833,95.437,540.325,539.071,0.0
52294.0,STARLINK-3777,PAYLOAD,2023-05-24 02:51:16,15.08869705,8.77e-05,53.2166,0.6399,75.4299,284.6791,0.0012902,0.00020322,0.0,0 STARLINK-3777,1 52294U 22041AK  23144.11894354  .00020322  00000-0  12902-2 0  9995,2 52294  53.2166   0.6399 0000877  75.4299 284.6791 15.08869705 61656,6917.79,95.436,540.261,539.048,0.0
52294.0,STARLINK-3777,PAYLOAD,2023-05-24 06:02:03,15.0884109,7.28e-05,53.2166,0.045,78.4822,281.6251,0.00025165,3.72e-05,0.0,0 STARLINK-3777,1 52294U 22041AK  23144.25142748  .00003720  00000-0  25165-3 0  9992,2 52294  53.2166   0.0450 0000728  78.4822 281.6251 15.08841090 61675,6917.877,95.437,540.246,539.238,0.0
52294.0,STARLINK-3777,PAYLOAD,2023-05-24 15:34:22,15.08844441,8.66e-05,53.2166,358.2604,75.3762,284.7326,0.00024038,3.54e-05,0.0,0 STARLINK-3777,1 52294U 22041AK  23144.64886785  .00003540  00000-0  24038-3 0  9999,2 52294  53.2166 358.2604 0000866  75.3762 284.7326 15.08844441 60518,6917.867,95.437,540.331,539.133,0.0
52294.0,STARLINK-3777,PAYLOAD,2023-05-25 18:35:55,15.08854899,9.49e-05,53.2168,353.2051,64.436,295.673,0.00078168,0.00012179,0.0,0 STARLINK-3777,1 52294U 22041AK  23145.77494668  .00012179  00000-0  78168-3 0  9990,2 52294  53.2168 353.2051 0000949  64.4360 295.6730 15.08854899 61908,6917.835,95.437,540.356,539.043,0.0
52294.0,STARLINK-3777,PAYLOAD,2023-05-25 20:11:18,15.08854902,9.54e-05,53.2168,352.9077,64.1793,295.9298,0.00070423,0.00010942,0.0,0 STARLINK-3777,1 52294U 22041AK  23145.84118597  .00010942  00000-0  70423-3 0  9994,2 52294  53.2168 352.9077 0000954  64.1793 295.9298 15.08854902 60697,6917.835,95.437,540.36,539.04,0.0
52294.0,STARLINK-3777,PAYLOAD,2023-05-26 13:40:32,15.08844431,9.22e-05,53.2169,349.6366,87.3181,272.7917,0.00036955,5.599e-05,0.0,0 STARLINK-3777,1 52294U 22041AK  23146.56982551  .00005599  00000-0  36955-3 0  9997,2 52294  53.2169 349.6366 0000922  87.3181 272.7917 15.08844431 60805,6917.867,95.437,540.37,539.094,0.0
